{
    "links": {
        "self": "http://www.neowsapp.com/rest/v1/neo/3785781?api_key=iIulBulltgU6a56xZRHN4H3l9WmuAYTsLGpBGhQ2"
    },
    "id": "3785781",
    "neo_reference_id": "3785781",
    "name": "(2017 TB5)",
    "designation": "2017 TB5",
    "nasa_jpl_url": "http://ssd.jpl.nasa.gov/sbdb.cgi?sstr=3785781",
    "absolute_magnitude_h": 26.0,
    "estimated_diameter": {
        "kilometers": {
            "estimated_diameter_min": 0.0167708462,
            "estimated_diameter_max": 0.0375007522
        },
        "meters": {
            "estimated_diameter_min": 16.7708462163,
            "estimated_diameter_max": 37.5007521798
        },
        "miles": {
            "estimated_diameter_min": 0.0104209175,
            "estimated_diameter_max": 0.0233018799
        },
        "feet": {
            "estimated_diameter_min": 55.0224631002,
            "estimated_diameter_max": 123.0339677816
        }
    },
    "is_potentially_hazardous_asteroid": false,
    "close_approach_data": [
        {
            "close_approach_date": "2015-10-28",
            "close_approach_date_full": "2015-Oct-28 17:04",
            "epoch_date_close_approach": 1446051840000,
            "relative_velocity": {
                "kilometers_per_second": "14.9439486568",
                "kilometers_per_hour": "53798.2151643677",
                "miles_per_hour": "33428.1187503261"
            },
            "miss_distance": {
                "astronomical": "0.2706209366",
                "lunar": "105.2715443374",
                "kilometers": "40484315.692765042",
                "miles": "25155787.2821278996"
            },
            "orbiting_body": "Earth"
        },
        {
            "close_approach_date": "2017-10-09",
            "close_approach_date_full": "2017-Oct-09 01:15",
            "epoch_date_close_approach": 1507511700000,
            "relative_velocity": {
                "kilometers_per_second": "7.9816361828",
                "kilometers_per_hour": "28733.8902581848",
                "miles_per_hour": "17854.1219773705"
            },
            "miss_distance": {
                "astronomical": "0.0453470751",
                "lunar": "17.6400122139",
                "kilometers": "6783825.845690037",
                "miles": "4215273.9156630306"
            },
            "orbiting_body": "Earth"
        }
    ],
    "orbital_data": {
        "orbit_id": "6",
        "orbit_determination_date": "2017-11-03 06:43:12",
        "first_observation_date": "2017-10-13",
        "last_observation_date": "2017-10-26",
        "data_arc_in_days": 13,
        "observations_used": 37,
        "orbit_uncertainty": "8",
        "minimum_orbit_intersection": ".0407697",
        "jupiter_tisserand_invariant": "4.332",
        "epoch_osculation": "2458047.5",
        "eccentricity": ".3689780190517858",
        "semi_major_axis": "1.567961019766537",
        "inclination": "6.911769502964342",
        "ascending_node_longitude": "208.3194115789175",
        "orbital_period": "717.135661421185",
        "perihelion_distance": ".9894178687426626",
        "perihelion_argument": "135.3760449126126",
        "aphelion_distance": "2.146504170790412",
        "perihelion_time": "2458008.488090803744",
        "mean_anomaly": "19.58386406669537",
        "mean_motion": ".5019970688482697",
        "equinox": "J2000",
        "orbit_class": {
            "orbit_class_type": "APO",
            "orbit_class_description": "Near-Earth asteroid orbits which cross the Earth’s orbit similar to that of 1862 Apollo",
            "orbit_class_range": "a (semi-major axis) > 1.0 AU; q (perihelion) < 1.017 AU"
        }
    },
    "is_sentry_object": false
}